ONEWEB-0385             
1 49311U 21090AJ  23299.98166084  .00000015  00000+0  48820-5 0  9999
2 49311  87.9151 106.3982 0001969  98.2603 261.8753 13.20766633103848
ONEWEB-0386             
1 49312U 21090AK  23300.37726200 -.00000057  00000+0 -17282-3 0  9992
2 49312  87.9146 106.3295 0001972  93.1825 266.9534 13.20774187103907
ONEWEB-0387             
1 49313U 21090AL  23300.36253507  .00002105  00000+0  51447-2 0  9991
2 49313  87.9151 106.3797 0001807 114.9624 245.1697 13.20757866103901
ONEWEB-0388             
1 49314U 21090AM  23300.09403915  .00000047  00000+0  86199-4 0  9999
2 49314  87.9183 136.8690 0001762  81.1069 279.0264 13.19723493100545
ONEWEB-0389             
1 50469U 21132A   23300.18834486 -.00000006  00000+0 -48246-4 0  9998
2 50469  87.9262 197.4510 0001725  93.3290 266.8039 13.17651222 92429
ONEWEB-0390             
1 50470U 21132B   23299.73484347  .00000063  00000+0  12877-3 0  9996
2 50470  87.9266 197.5478 0001340  79.7438 280.3844 13.17648751 91072
ONEWEB-0391             
1 50471U 21132C   23299.73695484  .00000032  00000+0  48774-4 0  9995
2 50471  87.9267 197.5181 0001783  83.5387 276.5947 13.17648922 91073
ONEWEB-0392             
1 50472U 21132D   23299.76648678  .00000001  00000+0 -29603-4 0  9999
2 50472  87.9248 197.5468 0001656  86.5132 273.6188 13.17647033 91113
